start=new Date('2022-06-22T00:00:00.000Z').valueOf();
sats=[{"MEAN_ELEMENT_THEORY":"SGP4","EPHEMERIS_TYPE":"0","SITE":"AFETR","COUNTRY_CODE":"US","ARG_OF_PERICENTER":"36.2771","CENTER_NAME":"EARTH","GP_ID":"206581222","MEAN_MOTION_DOT":"-0.00000366","REV_AT_EPOCH":"6195","MEAN_MOTION_DDOT":"0.0000000000000","REF_FRAME":"TEME","OBJECT_NAME":"STARLINK-2658","BSTAR":"-0.00000563050000","APOAPSIS":"549.053","DECAY_DATE":null,"PERIAPSIS":"545.350","TIME_SYSTEM":"UTC","PERIOD":"95.592","ELEMENT_SET_NO":"999","TLE_LINE2":"2 48473  53.0533 163.5154 0002673  36.2771 323.8398 15.06403923 61956","MEAN_MOTION":"15.06403923","EPOCH":"2022-06-21T16:03:04.409856","MEAN_ANOMALY":"323.8398","OBJECT_TYPE":"PAYLOAD","RCS_SIZE":"LARGE","RA_OF_ASC_NODE":"163.5154","INCLINATION":"53.0533","SEMIMAJOR_AXIS":"6925.337","NORAD_CAT_ID":"48473","TLE_LINE1":"1 48473U 21040AX  22172.66880104 -.00000366  00000-0 -56305-5 0  9991","CLASSIFICATION_TYPE":"U","LAUNCH_DATE":"2021-05-09","FILE":"3499203","ECCENTRICITY":"0.00026730","OBJECT_ID":"2021-040AX"},{"MEAN_ANOMALY":"291.2419","EPOCH":"2022-06-21T18:26:22.939584","NORAD_CAT_ID":"48474","SEMIMAJOR_AXIS":"6925.351","INCLINATION":"53.0548","RA_OF_ASC_NODE":"163.0796","RCS_SIZE":"LARGE","OBJECT_TYPE":"PAYLOAD","ELEMENT_SET_NO":"999","PERIOD":"95.592","TLE_LINE2":"2 48474  53.0548 163.0796 0001647  68.8746 291.2419 15.06399128 61967","MEAN_MOTION":"15.06399128","FILE":"3499203","LAUNCH_DATE":"2021-05-09","ECCENTRICITY":"0.00016470","OBJECT_ID":"2021-040AY","TLE_LINE1":"1 48474U 21040AY  22172.76832106  .00001192  00000-0  98890-4 0  9992","CLASSIFICATION_TYPE":"U","GP_ID":"206581467","CENTER_NAME":"EARTH","REF_FRAME":"TEME","MEAN_MOTION_DDOT":"0.0000000000000","MEAN_MOTION_DOT":"0.00001192","REV_AT_EPOCH":"6196","EPHEMERIS_TYPE":"0","MEAN_ELEMENT_THEORY":"SGP4","ARG_OF_PERICENTER":"68.8746","COUNTRY_CODE":"US","SITE":"AFETR","PERIAPSIS":"546.076","DECAY_DATE":null,"APOAPSIS":"548.357","BSTAR":"0.00009889000000","OBJECT_NAME":"STARLINK-2697","TIME_SYSTEM":"UTC"},{"TLE_LINE1":"1 48475U 21040AZ  22172.93788090 -.00000498  00000-0 -14511-4 0  9992","CLASSIFICATION_TYPE":"U","LAUNCH_DATE":"2021-05-09","FILE":"3499203","OBJECT_ID":"2021-040AZ","ECCENTRICITY":"0.00019070","PERIOD":"95.593","ELEMENT_SET_NO":"999","TLE_LINE2":"2 48475  53.0518 162.3229 0001907  46.8584 313.2564 15.06390763 61998","MEAN_MOTION":"15.06390763","MEAN_ANOMALY":"313.2564","EPOCH":"2022-06-21T22:30:32.909760","INCLINATION":"53.0518","RA_OF_ASC_NODE":"162.3229","RCS_SIZE":"LARGE","OBJECT_TYPE":"PAYLOAD","NORAD_CAT_ID":"48475","SEMIMAJOR_AXIS":"6925.377","BSTAR":"-0.00001451100000","OBJECT_NAME":"STARLINK-2619","DECAY_DATE":null,"APOAPSIS":"548.563","PERIAPSIS":"545.921","TIME_SYSTEM":"UTC","EPHEMERIS_TYPE":"0","MEAN_ELEMENT_THEORY":"SGP4","SITE":"AFETR","ARG_OF_PERICENTER":"46.8584","COUNTRY_CODE":"US","CENTER_NAME":"EARTH","GP_ID":"206582215","MEAN_MOTION_DDOT":"0.0000000000000","MEAN_MOTION_DOT":"-0.00000498","REV_AT_EPOCH":"6199","REF_FRAME":"TEME"},{"EPOCH":"2022-06-21T16:40:14.185632","MEAN_ANOMALY":"308.2204","OBJECT_TYPE":"PAYLOAD","RCS_SIZE":"LARGE","RA_OF_ASC_NODE":"163.3999","INCLINATION":"53.0543","SEMIMAJOR_AXIS":"6925.359","NORAD_CAT_ID":"48476","PERIOD":"95.592","ELEMENT_SET_NO":"999","TLE_LINE2":"2 48476  53.0543 163.3999 0001700  51.8939 308.2204 15.06396514 61954","MEAN_MOTION":"15.06396514","LAUNCH_DATE":"2021-05-09","FILE":"3499203","ECCENTRICITY":"0.00017000","OBJECT_ID":"2021-040BA","TLE_LINE1":"1 48476U 21040BA  22172.69460863 -.00000353  00000-0 -47993-5 0  9992","CLASSIFICATION_TYPE":"U","CENTER_NAME":"EARTH","GP_ID":"206580970","REV_AT_EPOCH":"6195","MEAN_MOTION_DOT":"-0.00000353","MEAN_MOTION_DDOT":"0.0000000000000","REF_FRAME":"TEME","MEAN_ELEMENT_THEORY":"SGP4","EPHEMERIS_TYPE":"0","SITE":"AFETR","COUNTRY_CODE":"US","ARG_OF_PERICENTER":"51.8939","OBJECT_NAME":"STARLINK-2723","BSTAR":"-0.00000479930000","DECAY_DATE":null,"PERIAPSIS":"546.047","APOAPSIS":"548.402","TIME_SYSTEM":"UTC"},{"CLASSIFICATION_TYPE":"U","TLE_LINE1":"1 48478U 02032DG  22172.67985888  .00000635  00000-0  61553-4 0  9999","OBJECT_ID":"2021-040BC","ECCENTRICITY":"0.00018920","FILE":"3499203","LAUNCH_DATE":"2021-05-09","TLE_LINE2":"2 48478  53.0542 163.4857 0001892  47.7294 312.3856 15.06394520 61953","MEAN_MOTION":"15.06394520","ELEMENT_SET_NO":"999","PERIOD":"95.592","NORAD_CAT_ID":"48478","SEMIMAJOR_AXIS":"6925.365","OBJECT_TYPE":"PAYLOAD","RCS_SIZE":"LARGE","RA_OF_ASC_NODE":"163.4857","INCLINATION":"53.0542","EPOCH":"2022-06-21T16:18:59.807232","MEAN_ANOMALY":"312.3856","TIME_SYSTEM":"UTC","APOAPSIS":"548.541","DECAY_DATE":null,"PERIAPSIS":"545.920","OBJECT_NAME":"STARLINK-2728","BSTAR":"0.00006155300000","COUNTRY_CODE":"US","ARG_OF_PERICENTER":"47.7294","SITE":"AFETR","MEAN_ELEMENT_THEORY":"SGP4","EPHEMERIS_TYPE":"0","REF_FRAME":"TEME","REV_AT_EPOCH":"6195","MEAN_MOTION_DOT":"0.00000635","MEAN_MOTION_DDOT":"0.0000000000000","GP_ID":"206580724","CENTER_NAME":"EARTH"},{"ECCENTRICITY":"0.00015490","OBJECT_ID":"2021-040BD","FILE":"3499203","LAUNCH_DATE":"2021-05-09","CLASSIFICATION_TYPE":"U","TLE_LINE1":"1 48479U 21040BD  22172.67617615  .00000358  00000-0  42946-4 0  9997","NORAD_CAT_ID":"48479","SEMIMAJOR_AXIS":"6925.357","RCS_SIZE":"LARGE","OBJECT_TYPE":"PAYLOAD","RA_OF_ASC_NODE":"163.4976","INCLINATION":"53.0544","EPOCH":"2022-06-21T16:13:41.619360","MEAN_ANOMALY":"304.6154","TLE_LINE2":"2 48479  53.0544 163.4976 0001549  55.4981 304.6154 15.06397099 61955","MEAN_MOTION":"15.06397099","ELEMENT_SET_NO":"999","PERIOD":"95.592","TIME_SYSTEM":"UTC","PERIAPSIS":"546.150","DECAY_DATE":null,"APOAPSIS":"548.295","OBJECT_NAME":"STARLINK-2755","BSTAR":"0.00004294600000","REF_FRAME":"TEME","MEAN_MOTION_DOT":"0.00000358","REV_AT_EPOCH":"6195","MEAN_MOTION_DDOT":"0.0000000000000","GP_ID":"206581967","CENTER_NAME":"EARTH","COUNTRY_CODE":"US","ARG_OF_PERICENTER":"55.4981","SITE":"AFETR","MEAN_ELEMENT_THEORY":"SGP4","EPHEMERIS_TYPE":"0"},{"GP_ID":"206548218","CENTER_NAME":"EARTH","REF_FRAME":"TEME","REV_AT_EPOCH":"6177","MEAN_MOTION_DOT":"0.00001276","MEAN_MOTION_DDOT":"0.0000000000000","MEAN_ELEMENT_THEORY":"SGP4","EPHEMERIS_TYPE":"0","COUNTRY_CODE":"US","ARG_OF_PERICENTER":"47.2303","SITE":"AFETR","PERIAPSIS":"545.721","DECAY_DATE":null,"APOAPSIS":"548.724","OBJECT_NAME":"STARLINK-2690","BSTAR":"0.00010455000000","TIME_SYSTEM":"UTC","EPOCH":"2022-06-21T10:10:04.142784","MEAN_ANOMALY":"312.8868","NORAD_CAT_ID":"48480","SEMIMAJOR_AXIS":"6925.357","RCS_SIZE":"LARGE","OBJECT_TYPE":"PAYLOAD","RA_OF_ASC_NODE":"174.6168","INCLINATION":"53.0549","ELEMENT_SET_NO":"999","PERIOD":"95.592","MEAN_MOTION":"15.06397115","TLE_LINE2":"2 48480  53.0549 174.6168 0002168  47.2303 312.8868 15.06397115 61776","FILE":"3498878","LAUNCH_DATE":"2021-05-09","OBJECT_ID":"2021-040BE","ECCENTRICITY":"0.00021680","TLE_LINE1":"1 48480U 21040BE  22172.42365906  .00001276  00000-0  10455-3 0  9994","CLASSIFICATION_TYPE":"U"},{"SEMIMAJOR_AXIS":"6925.352","NORAD_CAT_ID":"48481","OBJECT_TYPE":"PAYLOAD","RCS_SIZE":"LARGE","INCLINATION":"53.0544","RA_OF_ASC_NODE":"173.5275","EPOCH":"2022-06-21T17:32:02.572512","MEAN_ANOMALY":"309.5079","MEAN_MOTION":"15.06398805","TLE_LINE2":"2 48481  53.0544 173.5275 0001988  50.6086 309.5079 15.06398805 61813","ELEMENT_SET_NO":"999","PERIOD":"95.592","OBJECT_ID":"2021-040BF","ECCENTRICITY":"0.00019880","FILE":"3499203","LAUNCH_DATE":"2021-05-09","CLASSIFICATION_TYPE":"U","TLE_LINE1":"1 48481U 21040BF  22172.73058533  .00001237  00000-0  10191-3 0  9998","REF_FRAME":"TEME","MEAN_MOTION_DOT":"0.00001237","REV_AT_EPOCH":"6181","MEAN_MOTION_DDOT":"0.0000000000000","GP_ID":"206580472","CENTER_NAME":"EARTH","COUNTRY_CODE":"US","ARG_OF_PERICENTER":"50.6086","SITE":"AFETR","MEAN_ELEMENT_THEORY":"SGP4","EPHEMERIS_TYPE":"0","TIME_SYSTEM":"UTC","DECAY_DATE":null,"APOAPSIS":"548.594","PERIAPSIS":"545.840","OBJECT_NAME":"STARLINK-2706","BSTAR":"0.00010191000000"},{"EPHEMERIS_TYPE":"0","MEAN_ELEMENT_THEORY":"SGP4","SITE":"AFETR","ARG_OF_PERICENTER":"54.5808","COUNTRY_CODE":"US","CENTER_NAME":"EARTH","GP_ID":"206581223","MEAN_MOTION_DDOT":"0.0000000000000","MEAN_MOTION_DOT":"-0.00000570","REV_AT_EPOCH":"6181","REF_FRAME":"TEME","BSTAR":"-0.00001935700000","OBJECT_NAME":"STARLINK-2525","DECAY_DATE":null,"APOAPSIS":"548.507","PERIAPSIS":"545.911","TIME_SYSTEM":"UTC","PERIOD":"95.592","ELEMENT_SET_NO":"999","MEAN_MOTION":"15.06401499","TLE_LINE2":"2 48482  53.0533 173.4047 0001874  54.5808 305.5356 15.06401499 61815","MEAN_ANOMALY":"305.5356","EPOCH":"2022-06-21T16:44:13.135200","RA_OF_ASC_NODE":"173.4047","INCLINATION":"53.0533","RCS_SIZE":"LARGE","OBJECT_TYPE":"PAYLOAD","NORAD_CAT_ID":"48482","SEMIMAJOR_AXIS":"6925.344","TLE_LINE1":"1 48482U 21040BG  22172.69737425 -.00000570  00000-0 -19357-4 0  9993","CLASSIFICATION_TYPE":"U","LAUNCH_DATE":"2021-05-09","FILE":"3499203","ECCENTRICITY":"0.00018740","OBJECT_ID":"2021-040BG"},{"FILE":"3499203","LAUNCH_DATE":"2021-05-09","OBJECT_ID":"2021-040BH","ECCENTRICITY":"0.00020440","TLE_LINE1":"1 48483U 21040BH  22172.69368527  .00000793  00000-0  72113-4 0  9991","CLASSIFICATION_TYPE":"U","EPOCH":"2022-06-21T16:38:54.407328","MEAN_ANOMALY":"316.6132","SEMIMAJOR_AXIS":"6925.332","NORAD_CAT_ID":"48483","RCS_SIZE":"LARGE","OBJECT_TYPE":"PAYLOAD","INCLINATION":"53.0534","RA_OF_ASC_NODE":"173.4190","ELEMENT_SET_NO":"999","PERIOD":"95.592","TLE_LINE2":"2 48483  53.0534 173.4190 0002044  43.5018 316.6132 15.06405465 61819","MEAN_MOTION":"15.06405465","DECAY_DATE":null,"APOAPSIS":"548.612","PERIAPSIS":"545.781","OBJECT_NAME":"STARLINK-2531","BSTAR":"0.00007211300000","TIME_SYSTEM":"UTC","GP_ID":"206581468","CENTER_NAME":"EARTH","REF_FRAME":"TEME","MEAN_MOTION_DOT":"0.00000793","REV_AT_EPOCH":"6181","MEAN_MOTION_DDOT":"0.0000000000000","MEAN_ELEMENT_THEORY":"SGP4","EPHEMERIS_TYPE":"0","COUNTRY_CODE":"US","ARG_OF_PERICENTER":"43.5018","SITE":"AFETR"}];
